COMMENT,ORIGINATOR,NORAD_CAT_ID,OBJECT_NAME,OBJECT_TYPE,CLASSIFICATION_TYPE,INTLDES,EPOCH,EPOCH_MICROSECONDS,MEAN_MOTION,ECCENTRICITY,INCLINATION,RA_OF_ASC_NODE,ARG_OF_PERICENTER,MEAN_ANOMALY,EPHEMERIS_TYPE,ELEMENT_SET_NO,REV_AT_EPOCH,BSTAR,MEAN_MOTION_DOT,MEAN_MOTION_DDOT,FILE,TLE_LINE0,TLE_LINE1,TLE_LINE2,OBJECT_ID,OBJECT_NUMBER,SEMIMAJOR_AXIS,PERIOD,APOGEE,PERIGEE,DECAYED
"GENERATED VIA SPACETRACK.ORG API","18 SPCS","48904","SPACEBEE-111","PAYLOAD","U","21059AB","2021-09-09 20:14:54","542976","15.1258558","0.001087","97.5252","20.579","358.7571","1.3631","0","999","1149","0.00019383","0.00003321","0","3111873","0 SPACEBEE-111","1 48904U 21059AB  21252.84368684  .00003321  00000-0  19383-3 0  9997","2 48904  97.5252  20.5790 0010870 358.7571   1.3631 15.12585580 11491","2021-059AB","48904","6906.455","95.201","535.828","520.813","1"
"GENERATED VIA SPACETRACK.ORG API","18 SPCS","48904","SPACEBEE-111","PAYLOAD","U","21059AB","2021-09-09 23:25:25","908384","15.12586405","0.0010861","97.5252","20.7095","358.3027","1.8165","0","999","1151","0.00019437","0.00003331","0","3112078","0 SPACEBEE-111","1 48904U 21059AB  21252.97599431  .00003331  00000-0  19437-3 0  9998","2 48904  97.5252  20.7095 0010861 358.3027   1.8165 15.12586405 11510","2021-059AB","48904","6906.453","95.201","535.819","520.817","1"
"GENERATED VIA SPACETRACK.ORG API","18 SPCS","48904","SPACEBEE-111","PAYLOAD","U","21059AB","2021-09-10 07:21:44","296416","15.12589488","0.0010838","97.5252","21.0356","357.0903","3.0263","0","999","1156","0.00021367","0.00003668","0","3112362","0 SPACEBEE-111","1 48904U 21059AB  21253.30676269  .00003668  00000-0  21367-3 0  9999","2 48904  97.5252  21.0356 0010838 357.0903   3.0263 15.12589488 11569","2021-059AB","48904","6906.443","95.201","535.794","520.823","1"
"GENERATED VIA SPACETRACK.ORG API","18 SPCS","48904","SPACEBEE-111","PAYLOAD","U","21059AB","2021-09-10 21:39:05","263200","15.12593377","0.0010765","97.5253","21.6227","355.0492","5.063","0","999","1165","0.00020973","0.000036","0","3112758","0 SPACEBEE-111","1 48904U 21059AB  21253.90214425  .00003600  00000-0  20973-3 0  9995","2 48904  97.5253  21.6227 0010765 355.0492   5.0630 15.12593377 11655","2021-059AB","48904","6906.432","95.201","535.731","520.862","1"
"GENERATED VIA SPACETRACK.ORG API","18 SPCS","48904","SPACEBEE-111","PAYLOAD","U","21059AB","2021-09-11 02:24:52","202880","15.12595144","0.0010767","97.5253","21.8184","354.3066","5.8041","0","999","1168","0.0002154","0.00003699","0","3112863","0 SPACEBEE-111","1 48904U 21059AB  21254.10060420  .00003699  00000-0  21540-3 0  9991","2 48904  97.5253  21.8184 0010767 354.3066   5.8041 15.12595144 11681","2021-059AB","48904","6906.426","95.201","535.727","520.855","1"
"GENERATED VIA SPACETRACK.ORG API","18 SPCS","48904","SPACEBEE-111","PAYLOAD","U","21059AB","2021-09-11 07:10:39","85536","15.12599213","0.0010751","97.5254","22.0142","353.6023","6.5069","0","999","1171","0.0002681","0.00004621","0","3113181","0 SPACEBEE-111","1 48904U 21059AB  21254.29906349  .00004621  00000-0  26810-3 0  9991","2 48904  97.5254  22.0142 0010751 353.6023   6.5069 15.12599213 11710","2021-059AB","48904","6906.414","95.200","535.704","520.854","1"
"GENERATED VIA SPACETRACK.ORG API","18 SPCS","48904","SPACEBEE-111","PAYLOAD","U","21059AB","2021-09-11 15:06:57","295584","15.12599749","0.0010702","97.5255","22.3403","352.4626","7.6442","0","999","1176","0.00022519","0.00003871","0","3113379","0 SPACEBEE-111","1 48904U 21059AB  21254.62982981  .00003871  00000-0  22519-3 0  9992","2 48904  97.5255  22.3403 0010702 352.4626   7.6442 15.12599749 11762","2021-059AB","48904","6906.412","95.200","535.668","520.886","1"
"GENERATED VIA SPACETRACK.ORG API","18 SPCS","48904","SPACEBEE-111","PAYLOAD","U","21059AB","2021-09-12 08:34:49","104192","15.12604325","0.0010647","97.5253","23.0578","349.8781","10.2234","0","999","1187","0.00020214","0.00003468","0","3113805","0 SPACEBEE-111","1 48904U 21059AB  21255.35751278  .00003468  00000-0  20214-3 0  9998","2 48904  97.5253  23.0578 0010647 349.8781  10.2234 15.12604325 11879","2021-059AB","48904","6906.398","95.200","535.616","520.910","1"
"GENERATED VIA SPACETRACK.ORG API","18 SPCS","48904","SPACEBEE-111","PAYLOAD","U","21059AB","2021-09-12 08:34:49","104192","15.12604325","0.0010647","97.5253","23.0578","349.8781","10.2234","0","999","1187","0.00020214","0.00003468","0","3114003","0 SPACEBEE-111","1 48904U 21059AB  21255.35751278  .00003468  00000-0  20214-3 0  9998","2 48904  97.5253  23.0578 0010647 349.8781  10.2234 15.12604325 11879","2021-059AB","48904","6906.398","95.200","535.616","520.910","1"
"GENERATED VIA SPACETRACK.ORG API","18 SPCS","48904","SPACEBEE-111","PAYLOAD","U","21059AB","2021-09-12 21:16:53","910912","15.12608191","0.0010605","97.5252","23.5797","348.0342","12.0635","0","999","1195","0.00019638","0.00003368","0","3114195","0 SPACEBEE-111","1 48904U 21059AB  21255.88673508  .00003368  00000-0  19638-3 0  9992","2 48904  97.5252  23.5797 0010605 348.0342  12.0635 15.12608191 11953","2021-059AB","48904","6906.386","95.200","535.576","520.927","1"
"GENERATED VIA SPACETRACK.ORG API","18 SPCS","48904","SPACEBEE-111","PAYLOAD","U","21059AB","2021-09-13 08:23:43","53504","15.12610623","0.0010572","97.5252","24.0363","346.3796","13.7148","0","999","1202","0.00017827","0.00003051","0","3114796","0 SPACEBEE-111","1 48904U 21059AB  21256.34980386  .00003051  00000-0  17827-3 0  9996","2 48904  97.5252  24.0363 0010572 346.3796  13.7148 15.12610623 12024","2021-059AB","48904","6906.379","95.200","535.545","520.943","1"
"GENERATED VIA SPACETRACK.ORG API","18 SPCS","48904","SPACEBEE-111","PAYLOAD","U","21059AB","2021-09-13 19:30:32","91552","15.12614003","0.0010531","97.5252","24.4928","344.7227","15.3684","0","999","1209","0.00017732","0.00003035","0","3115005","0 SPACEBEE-111","1 48904U 21059AB  21256.81287143  .00003035  00000-0  17732-3 0  9996","2 48904  97.5252  24.4928 0010531 344.7227  15.3684 15.12614003 12097","2021-059AB","48904","6906.369","95.199","535.507","520.961","1"
"GENERATED VIA SPACETRACK.ORG API","18 SPCS","48904","SPACEBEE-111","PAYLOAD","U","21059AB","2021-09-14 00:16:18","806592","15.12615572","0.0010492","97.5251","24.6886","344.2352","15.8551","0","999","1212","0.00017213","0.00002944","0","3115092","0 SPACEBEE-111","1 48904U 21059AB  21257.01132878  .00002944  00000-0  17213-3 0  9995","2 48904  97.5251  24.6886 0010492 344.2352  15.8551 15.12615572 12125","2021-059AB","48904","6906.364","95.199","535.475","520.983","1"
"GENERATED VIA SPACETRACK.ORG API","18 SPCS","48904","SPACEBEE-111","PAYLOAD","U","21059AB","2021-09-14 08:12:36","630432","15.12617556","0.0010475","97.5251","25.0147","343.0261","17.0618","0","999","1217","0.00016537","0.00002826","0","3115492","0 SPACEBEE-111","1 48904U 21059AB  21257.34209063  .00002826  00000-0  16537-3 0  9999","2 48904  97.5251  25.0147 0010475 343.0261  17.0618 15.12617556 12174","2021-059AB","48904","6906.358","95.199","535.457","520.989","1"
"GENERATED VIA SPACETRACK.ORG API","18 SPCS","48904","SPACEBEE-111","PAYLOAD","U","21059AB","2021-09-14 14:33:38","880864","15.12618376","0.0010443","97.525","25.2756","342.0563","18.0298","0","999","1221","0.00014839","0.00002529","0","3115650","0 SPACEBEE-111","1 48904U 21059AB  21257.60670001  .00002529  00000-0  14839-3 0  9995","2 48904  97.5250  25.2756 0010443 342.0563  18.0298 15.12618376 12211","2021-059AB","48904","6906.355","95.199","535.433","521.008","1"
"GENERATED VIA SPACETRACK.ORG API","18 SPCS","48904","SPACEBEE-111","PAYLOAD","U","21059AB","2021-09-15 08:01:29","936928","15.12622274","0.0010416","97.525","25.993","339.1633","20.9172","0","999","1232","0.00015012","0.0000256","0","3116140","0 SPACEBEE-111","1 48904U 21059AB  21258.33437427  .00002560  00000-0  15012-3 0  9998","2 48904  97.5250  25.9930 0010416 339.1633  20.9172 15.12622274 12324","2021-059AB","48904","6906.344","95.199","535.402","521.015","1"
"GENERATED VIA SPACETRACK.ORG API","18 SPCS","48904","SPACEBEE-111","PAYLOAD","U","21059AB","2021-09-15 08:01:29","936928","15.12622274","0.0010416","97.525","25.993","339.1633","20.9172","0","999","1232","0.00015012","0.0000256","0","3116289","0 SPACEBEE-111","1 48904U 21059AB  21258.33437427  .00002560  00000-0  15012-3 0  9998","2 48904  97.5250  25.9930 0010416 339.1633  20.9172 15.12622274 12324","2021-059AB","48904","6906.344","95.199","535.402","521.015","1"
"GENERATED VIA SPACETRACK.ORG API","18 SPCS","48904","SPACEBEE-111","PAYLOAD","U","21059AB","2021-09-15 22:18:49","798656","15.12625335","0.0010371","97.5251","26.58","336.9454","23.131","0","999","1241","0.0001469","0.00002503","0","3116597","0 SPACEBEE-111","1 48904U 21059AB  21258.92974304  .00002503  00000-0  14690-3 0  9991","2 48904  97.5251  26.5800 0010371 336.9454  23.1310 15.12625335 12414","2021-059AB","48904","6906.334","95.199","535.362","521.037","1"
"GENERATED VIA SPACETRACK.ORG API","18 SPCS","48904","SPACEBEE-111","PAYLOAD","U","21059AB","2021-09-16 07:50:22","982496","15.12627793","0.0010342","97.5252","26.9714","335.4623","24.6114","0","999","1247","0.00015461","0.00002639","0","3117121","0 SPACEBEE-111","1 48904U 21059AB  21259.32665489  .00002639  00000-0  15461-3 0  9994","2 48904  97.5252  26.9714 0010342 335.4623  24.6114 15.12627793 12477","2021-059AB","48904","6906.327","95.199","535.334","521.049","1"
"GENERATED VIA SPACETRACK.ORG API","18 SPCS","48904","SPACEBEE-111","PAYLOAD","U","21059AB","2021-09-16 14:11:25","98144","15.12628892","0.0010323","97.5252","27.2323","334.5271","25.545","0","999","1251","0.00015241","0.000026","0","3117250","0 SPACEBEE-111","1 48904U 21059AB  21259.59126271  .00002600  00000-0  15241-3 0  9998","2 48904  97.5252  27.2323 0010323 334.5271  25.5450 15.12628892 12514","2021-059AB","48904","6906.323","95.198","535.318","521.059","1"
